{"type": "FeatureCollection", "features": [ {"type": "Feature", "properties": {"norad_id": 43207, "name": "BEIDOU-3 M4 (C22)", "group": "beidou", "lat": 50.543662302321245, "lon": 123.23303643429878, "alt_km": 21515.1365536146, "timestamp": "2025-12-01T03:58:49.201835+00:00", "meta": {"OBJECT_NAME": "BEIDOU-3 M4 (C22)", "OBJECT_ID": "2018-018A", "EPOCH": "2025-11-29T23:46:52.646304", "MEAN_MOTION": 1.86230785, "ECCENTRICITY": 0.00040324, "INCLINATION": 56.4748, "RA_OF_ASC_NODE": 69.7269, "ARG_OF_PERICENTER": 16.3017, "MEAN_ANOMALY": 343.7179, "EPHEMERIS_TYPE": 0, "CLASSIFICATION_TYPE": "U", "NORAD_CAT_ID": 43207, "ELEMENT_SET_NO": 999, "REV_AT_EPOCH": 5303, "BSTAR": 0, "MEAN_MOTION_DOT": -2.9e-07, "MEAN_MOTION_DDOT": 0, "GROUP": "beidou"}, "tle": {"line1": "1 43207U 18018A   25333.99088711 -.00000029  00000+0  00000+0 0  9993", "line2": "2 43207  56.4748  69.7269 0004032  16.3017 343.7179  1.86230785 53033"}}, "geometry": {"type": "Point", "coordinates": [123.23303643429878, 50.543662302321245]}}, {"type": "Feature", "properties": {"norad_id": 43208, "name": "BEIDOU-3 M3 (C21)", "group": "beidou", "lat": 19.14874256627256, "lon": 82.97960883885098, "alt_km": 21518.698894927755, "timestamp": "2025-12-01T03:58:49.201846+00:00", "meta": {"OBJECT_NAME": "BEIDOU-3 M3 (C21)", "OBJECT_ID": "2018-018B", "EPOCH": "2025-11-28T23:36:15.423840", "MEAN_MOTION": 1.86231026, "ECCENTRICITY": 0.00061008, "INCLINATION": 56.4732, "RA_OF_ASC_NODE": 69.7644, "ARG_OF_PERICENTER": 317.7997, "MEAN_ANOMALY": 42.163, "EPHEMERIS_TYPE": 0, "CLASSIFICATION_TYPE": "U", "NORAD_CAT_ID": 43208, "ELEMENT_SET_NO": 999, "REV_AT_EPOCH": 5301, "BSTAR": 0, "MEAN_MOTION_DOT": -2.2e-07, "MEAN_MOTION_DDOT": 0, "GROUP": "beidou"}, "tle": {"line1": "1 43208U 18018B   25332.98351185 -.00000022  00000+0  00000+0 0  9993", "line2": "2 43208  56.4732  69.7644 0006100 317.7997  42.1630  1.86231026 53016"}}, "geometry": {"type": "Point", "coordinates": [82.97960883885098, 19.14874256627256]}}, {"type": "Feature", "properties": {"norad_id": 43245, "name": "BEIDOU-3 M9 (C29)", "group": "beidou", "lat": -43.744248064405475, "lon": 170.17187516337827, "alt_km": 21529.16811700494, "timestamp": "2025-12-01T03:58:49.201858+00:00", "meta": {"OBJECT_NAME": "BEIDOU-3 M9 (C29)", "OBJECT_ID": "2018-029A", "EPOCH": "2025-11-30T06:33:48.438720", "MEAN_MOTION": 1.86227965, "ECCENTRICITY": 0.00018222, "INCLINATION": 54.3776, "RA_OF_ASC_NODE": 306.9034, "ARG_OF_PERICENTER": 271.8321, "MEAN_ANOMALY": 88.1431, "EPHEMERIS_TYPE": 0, "CLASSIFICATION_TYPE": "U", "NORAD_CAT_ID": 43245, "ELEMENT_SET_NO": 999, "REV_AT_EPOCH": 5219, "BSTAR": 0, "MEAN_MOTION_DOT": -5.2e-07, "MEAN_MOTION_DDOT": 0, "GROUP": "beidou"}, "tle": {"line1": "1 43245U 18029A   25334.27347730 -.00000052  00000+0  00000+0 0  9994", "line2": "2 43245  54.3776 306.9034 0001822 271.8321  88.1431  1.86227965 52192"}}, "geometry": {"type": "Point", "coordinates": [170.17187516337827, -43.744248064405475]}}, {"type": "Feature", "properties": {"norad_id": 43246, "name": "BEIDOU-3 M10 (C30)", "group": "beidou", "lat": -52.75610969988793, "lon": -123.66499440575166, "alt_km": 21531.51556715634, "timestamp": "2025-12-01T03:58:49.201869+00:00", "meta": {"OBJECT_NAME": "BEIDOU-3 M10 (C30)", "OBJECT_ID": "2018-029B", "EPOCH": "2025-11-29T03:14:13.986240", "MEAN_MOTION": 1.86228967, "ECCENTRICITY": 0.00039142, "INCLINATION": 54.3758, "RA_OF_ASC_NODE": 306.9698, "ARG_OF_PERICENTER": 358.6776, "MEAN_ANOMALY": 1.3207, "EPHEMERIS_TYPE": 0, "CLASSIFICATION_TYPE": "U", "NORAD_CAT_ID": 43246, "ELEMENT_SET_NO": 999, "REV_AT_EPOCH": 5215, "BSTAR": 0, "MEAN_MOTION_DOT": -4.6e-07, "MEAN_MOTION_DDOT": 0, "GROUP": "beidou"}, "tle": {"line1": "1 43246U 18029B   25333.13488410 -.00000046  00000+0  00000+0 0  9993", "line2": "2 43246  54.3758 306.9698 0003914 358.6776   1.3207  1.86228967 52158"}}, "geometry": {"type": "Point", "coordinates": [-123.66499440575166, -52.75610969988793]}}, {"type": "Feature", "properties": {"norad_id": 43539, "name": "BEIDOU-2 IGSO-7 (C16)", "group": "beidou", "lat": 52.845396778147155, "lon": -128.33269792051007, "alt_km": 36147.52343921937, "timestamp": "2025-12-01T03:58:49.201886+00:00", "meta": {"OBJECT_NAME": "BEIDOU-2 IGSO-7 (C16)", "OBJECT_ID": "2018-057A", "EPOCH": "2025-11-30T10:56:37.267296", "MEAN_MOTION": 1.00260493, "ECCENTRICITY": 0.00924173, "INCLINATION": 55.1734, "RA_OF_ASC_NODE": 164.7799, "ARG_OF_PERICENTER": 235.1447, "MEAN_ANOMALY": 305.3801, "EPHEMERIS_TYPE": 0, "CLASSIFICATION_TYPE": "U", "NORAD_CAT_ID": 43539, "ELEMENT_SET_NO": 999, "REV_AT_EPOCH": 2713, "BSTAR": 0, "MEAN_MOTION_DOT": -2.3e-07, "MEAN_MOTION_DDOT": 0, "GROUP": "beidou"}, "tle": {"line1": "1 43539U 18057A   25334.45598689 -.00000023  00000+0  00000+0 0  9990", "line2": "2 43539  55.1734 164.7799 0092417 235.1447 305.3801  1.00260493 27131"}}, "geometry": {"type": "Point", "coordinates": [-128.33269792051007, 52.845396778147155]}}, {"type": "Feature", "properties": {"norad_id": 43581, "name": "BEIDOU-3 M5 (C23)", "group": "beidou", "lat": 37.668081267900206, "lon": -24.960446959223976, "alt_km": 21528.342101966682, "timestamp": "2025-12-01T03:58:49.201900+00:00", "meta": {"OBJECT_NAME": "BEIDOU-3 M5 (C23)", "OBJECT_ID": "2018-062A", "EPOCH": "2025-11-29T21:31:06.168288", "MEAN_MOTION": 1.86228566, "ECCENTRICITY": 0.00021395, "INCLINATION": 54.0892, "RA_OF_ASC_NODE": 189.0808, "ARG_OF_PERICENTER": 349.4909, "MEAN_ANOMALY": 10.5941, "EPHEMERIS_TYPE": 0, "CLASSIFICATION_TYPE": "U", "NORAD_CAT_ID": 43581, "ELEMENT_SET_NO": 999, "REV_AT_EPOCH": 4992, "BSTAR": 0, "MEAN_MOTION_DOT": 1.08e-06, "MEAN_MOTION_DDOT": 0, "GROUP": "beidou"}, "tle": {"line1": "1 43581U 18062A   25333.89659917  .00000108  00000+0  00000+0 0  9995", "line2": "2 43581  54.0892 189.0808 0002139 349.4909  10.5941  1.86228566 49926"}}, "geometry": {"type": "Point", "coordinates": [-24.960446959223976, 37.668081267900206]}}, {"type": "Feature", "properties": {"norad_id": 43582, "name": "BEIDOU-3 M6 (C24)", "group": "beidou", "lat": -33.40218675363738, "lon": 37.572967833003176, "alt_km": 21553.684865276333, "timestamp": "2025-12-01T03:58:49.201911+00:00", "meta": {"OBJECT_NAME": "BEIDOU-3 M6 (C24)", "OBJECT_ID": "2018-062B", "EPOCH": "2025-11-29T18:14:01.707936", "MEAN_MOTION": 1.86229617, "ECCENTRICITY": 0.00076529, "INCLINATION": 54.0888, "RA_OF_ASC_NODE": 189.0746, "ARG_OF_PERICENTER": 45.4041, "MEAN_ANOMALY": 314.7474, "EPHEMERIS_TYPE": 0, "CLASSIFICATION_TYPE": "U", "NORAD_CAT_ID": 43582, "ELEMENT_SET_NO": 999, "REV_AT_EPOCH": 4992, "BSTAR": 0, "MEAN_MOTION_DOT": 1.07e-06, "MEAN_MOTION_DDOT": 0, "GROUP": "beidou"}, "tle": {"line1": "1 43582U 18062B   25333.75974199  .00000107  00000+0  00000+0 0  9992", "line2": "2 43582  54.0888 189.0746 0007652  45.4041 314.7474  1.86229617 49926"}}, "geometry": {"type": "Point", "coordinates": [37.572967833003176, -33.40218675363738]}}, {"type": "Feature", "properties": {"norad_id": 43602, "name": "BEIDOU-3 M12 (C26)", "group": "beidou", "lat": -53.807827283612774, "lon": 88.4319849142102, "alt_km": 21552.468067885075, "timestamp": "2025-12-01T03:58:49.201923+00:00", "meta": {"OBJECT_NAME": "BEIDOU-3 M12 (C26)", "OBJECT_ID": "2018-067A", "EPOCH": "2025-11-30T05:37:31.576800", "MEAN_MOTION": 1.86227633, "ECCENTRICITY": 0.00091293, "INCLINATION": 54.1831, "RA_OF_ASC_NODE": 187.7878, "ARG_OF_PERICENTER": 40.2994, "MEAN_ANOMALY": 319.8581, "EPHEMERIS_TYPE": 0, "CLASSIFICATION_TYPE": "U", "NORAD_CAT_ID": 43602, "ELEMENT_SET_NO": 999, "REV_AT_EPOCH": 4941, "BSTAR": 0, "MEAN_MOTION_DOT": 1.13e-06, "MEAN_MOTION_DDOT": 0, "GROUP": "beidou"}, "tle": {"line1": "1 43602U 18067A   25334.23439325  .00000113  00000+0  00000+0 0  9998", "line2": "2 43602  54.1831 187.7878 0009129  40.2994 319.8581  1.86227633 49415"}}, "geometry": {"type": "Point", "coordinates": [88.4319849142102, -53.807827283612774]}}, {"type": "Feature", "properties": {"norad_id": 43603, "name": "BEIDOU-3 M11 (C25)", "group": "beidou", "lat": 4.495055442282918, "lon": 4.474127124719205, "alt_km": 21539.7541375966, "timestamp": "2025-12-01T03:58:49.201933+00:00", "meta": {"OBJECT_NAME": "BEIDOU-3 M11 (C25)", "OBJECT_ID": "2018-067B", "EPOCH": "2025-11-29T19:57:56.721600", "MEAN_MOTION": 1.86227148, "ECCENTRICITY": 0.00055574, "INCLINATION": 54.1805, "RA_OF_ASC_NODE": 187.7656, "ARG_OF_PERICENTER": 35.6802, "MEAN_ANOMALY": 324.4454, "EPHEMERIS_TYPE": 0, "CLASSIFICATION_TYPE": "U", "NORAD_CAT_ID": 43603, "ELEMENT_SET_NO": 999, "REV_AT_EPOCH": 4943, "BSTAR": 0, "MEAN_MOTION_DOT": 1.1e-06, "MEAN_MOTION_DDOT": 0, "GROUP": "beidou"}, "tle": {"line1": "1 43603U 18067B   25333.83190650  .00000110  00000+0  00000+0 0  9996", "line2": "2 43603  54.1805 187.7656 0005557  35.6802 324.4454  1.86227148 49432"}}, "geometry": {"type": "Point", "coordinates": [4.474127124719205, 4.495055442282918]}}, {"type": "Feature", "properties": {"norad_id": 43622, "name": "BEIDOU-3 M13 (C32)", "group": "beidou", "lat": -19.32817909592836, "lon": -97.3581173901512, "alt_km": 21532.233777640293, "timestamp": "2025-12-01T03:58:49.201945+00:00", "meta": {"OBJECT_NAME": "BEIDOU-3 M13 (C32)", "OBJECT_ID": "2018-072A", "EPOCH": "2025-11-30T07:48:36.305280", "MEAN_MOTION": 1.86230738, "ECCENTRICITY": 0.00055162, "INCLINATION": 56.4483, "RA_OF_ASC_NODE": 69.2316, "ARG_OF_PERICENTER": 298.7431, "MEAN_ANOMALY": 61.2079, "EPHEMERIS_TYPE": 0, "CLASSIFICATION_TYPE": "U", "NORAD_CAT_ID": 43622, "ELEMENT_SET_NO": 999, "REV_AT_EPOCH": 4895, "BSTAR": 0, "MEAN_MOTION_DOT": -3.3e-07, "MEAN_MOTION_DDOT": 0, "GROUP": "beidou"}, "tle": {"line1": "1 43622U 18072A   25334.32542020 -.00000033  00000+0  00000+0 0  9995", "line2": "2 43622  56.4483  69.2316 0005516 298.7431  61.2079  1.86230738 48956"}}, "geometry": {"type": "Point", "coordinates": [-97.3581173901512, -19.32817909592836]}}]}